[{"OBJECT_NAME":"YAOGAN-32 A","OBJECT_ID":"2018-077A","EPOCH":"2026-03-09T23:02:56.675616","MEAN_MOTION":14.63036121,"ECCENTRICITY":0.00017694,"INCLINATION":98.1595,"RA_OF_ASC_NODE":98.6551,"ARG_OF_PERICENTER":95.91,"MEAN_ANOMALY":264.2303,"EPHEMERIS_TYPE":0,"CLASSIFICATION_TYPE":"U","NORAD_CAT_ID":43642,"ELEMENT_SET_NO":999,"REV_AT_EPOCH":39533,"BSTAR":0.00019081707,"MEAN_MOTION_DOT":9.32e-6,"MEAN_MOTION_DDOT":0},{"OBJECT_NAME":"FENGYUN 1C DEB","OBJECT_ID":"1999-025FBY","EPOCH":"2026-03-09T11:52:24.843072","MEAN_MOTION":14.53399072,"ECCENTRICITY":0.00858421,"INCLINATION":99.0245,"RA_OF_ASC_NODE":259.4992,"ARG_OF_PERICENTER":93.3925,"MEAN_ANOMALY":267.7093,"EPHEMERIS_TYPE":0,"CLASSIFICATION_TYPE":"U","NORAD_CAT_ID":47100,"ELEMENT_SET_NO":999,"REV_AT_EPOCH":28027,"BSTAR":0.0019616909,"MEAN_MOTION_DOT":8.526e-5,"MEAN_MOTION_DDOT":0}]
